E-ST@R-II               
1 41459U 16025D   22293.47322717  .00023181  00000+0  93368-3 0  9994
2 41459  98.1942 108.2180 0137707 204.0051 155.4674 15.16478426356421
AAUSAT 4                
1 41460U 16025E   22293.51086653  .00037633  00000+0  12684-2 0  9995
2 41460  98.1853 115.7371 0113543 175.3766 273.4358 15.24574587356956
BEESAT-4                
1 41619U 16040W   22293.40311508  .00016901  00000+0  50105-3 0  9992
2 41619  97.2026 340.8650 0009099  39.1564 321.0337 15.34864102339862
RAVAN                   
1 41849U 16067B   22293.36721809  .00003658  00000+0  28691-3 0  9990
2 41849  98.0062  74.1182 0014880 274.5103  85.4420 15.01543814324733
CELTEE 1                
1 41850U 16067C   22293.36666891  .00002390  00000+0  20233-3 0  9997
2 41850  98.0135  68.6891 0008570 281.8416  78.1845 14.99007740324467
OPTICUBE 04             
1 41851U 16067D   22293.34322274  .00001478  00000+0  12995-3 0  9992
2 41851  98.0154  67.5456 0007127 291.4972  68.5489 14.98156609324404
AEROCUBE 8D             
1 41852U 16067E   22293.36234881  .00002678  00000+0  22617-3 0  9996
2 41852  98.0110  67.6859 0009322 285.4528  74.5664 14.98981244324407
AEROCUBE 8C             
1 41853U 16067F   22293.34589668  .00002456  00000+0  20797-3 0  9992
2 41853  98.0136  67.4776 0008443 293.6853  66.3482 14.98971703324391
PROMETHEUS 2-1          
1 41854U 16067G   22293.33931424  .00005455  00000+0  43639-3 0  9995
2 41854  98.0209  68.8129 0015521 294.5350  65.4255 15.00544383324467
PROMETHEUS 2-3          
1 41855U 16067H   22293.33048721  .00005513  00000+0  44125-3 0  9991
2 41855  98.0160  68.8723 0013757 318.4056  41.6119 15.00542970324467
INS-1B                  
1 41954U 17008G   22293.44407634  .00017549  00000+0  51838-3 0  9992
2 41954  97.2435 350.8963 0007969 139.9400 220.2433 15.34981020315891
BGUSAT                  
1 41999U 17008BD  22293.18438557  .00052425  00000+0  91905-3 0  9991
2 41999  97.2670   3.7220 0005407 131.1480 229.0240 15.50393481315897
DIDO-2                  
1 42000U 17008BE  22293.39624164  .00008111  00000+0  27798-3 0  9991
2 42000  97.2429 349.5703 0007655 161.8471 198.3044 15.30419963315169
PEASSS                  
1 42015U 17008BV  22293.40731851  .00013998  00000+0  41868-3 0  9994
2 42015  97.2492 354.1596 0005657 151.4381 208.7174 15.34653495315919
AL-FARABI 1             
1 42016U 17008BW  22293.15068223  .00021532  00000+0  56069-3 0  9995
2 42016  97.2560 357.6551 0004932 147.8370 212.3177 15.38887030316190
NAYIF-1 (EO-88)         
1 42017U 17008BX  22293.41264218  .00021605  00000+0  55857-3 0  9992
2 42017  97.2551 357.9438 0005238 146.4158 213.7421 15.39105773316260
UCLSAT                  
1 42765U 17036A   22293.54653816  .00014745  00000+0  46637-3 0  9996
2 42765  97.1845 332.4277 0007340 227.1580 132.9047 15.32849887296993
LITUANICASAT-2          
1 42768U 17036D   22293.34275054  .00037055  00000+0  84153-3 0  9995
2 42768  97.1913 336.4337 0008460 204.5204 155.5642 15.42903930296453
AALTO-1                 
1 42775U 17036L   22293.32050981  .00007946  00000+0  29860-3 0  9991
2 42775  97.1863 326.4408 0010379 238.1549 121.8681 15.27376631295824
URSA MAIOR              
1 42776U 17036M   22293.05312397  .00009383  00000+0  34437-3 0  9997
2 42776  97.1877 327.0497 0010090 237.2343 122.7926 15.28109777295825
COMPASS 2               
1 42777U 17036N   22293.36842522  .00022273  00000+0  60887-3 0  9991
2 42777  97.1909 335.0750 0007968 210.7546 149.3233 15.37357527296302
DIAMOND RED             
1 42783U 17036U   22293.36962642  .00008815  00000+0  30907-3 0  9990
2 42783  97.1876 329.9396 0008375 239.2604 120.7813 15.29642043296021
PEGASUS                 
1 42784U 17036V   22293.35348410  .00012065  00000+0  39596-3 0  9996
2 42784  97.1867 331.3575 0008019 233.6584 126.3918 15.31706706296116
DIAMOND GREEN           
1 42785U 17036W   22293.37016457  .00010020  00000+0  35063-3 0  9996
2 42785  97.1877 330.0043 0008157 240.3882 119.6547 15.29672739296098
DIAMOND BLUE            
1 42786U 17036X   22293.10768321  .00010787  00000+0  37735-3 0  9990
2 42786  97.1878 329.7427 0008196 242.1117 117.9294 15.29663841296055
NUDTSAT                 
1 42787U 17036Y   22293.59089776  .00033400  00000+0  86536-3 0  9994
2 42787  97.1879 336.7828 0007011 211.5134 148.5672 15.38941685296307
SUCHAI                  
1 42788U 17036Z   22293.05205523  .00017483  00000+0  52960-3 0  9993
2 42788  97.1869 333.0809 0007371 226.3816 133.6817 15.34190318296262
SKCUBE                  
1 42789U 17036AA  22293.05647547  .00015557  00000+0  48862-3 0  9996
2 42789  97.1868 332.3854 0007496 228.6851 131.3747 15.33061743296148
VZLUSAT-1               
1 42790U 17036AB  22293.09393825  .00027068  00000+0  70974-3 0  9998
2 42790  97.1885 336.2295 0006575 213.4261 146.6571 15.38619437296378
ROBUSTA 1B              
1 42792U 17036AD  22293.35318435  .00015555  00000+0  47645-3 0  9990
2 42792  97.1864 333.3472 0007017 225.7761 134.2907 15.33863987296243
CICERO 6                
1 42793U 17036AE  22293.07565284  .00008836  00000+0  31240-3 0  9994
2 42793  97.1854 330.1426 0007007 239.1267 120.9285 15.29381065296109
CORVUS BC2              
1 42846U 17042X   22293.54138007  .00002131  00000+0  20873-3 0  9993
2 42846  97.4068 143.6990 0007898 303.9293  56.1176 14.93233024286949
CORVUS BC1              
1 42847U 17042Y   22293.54661859  .00001755  00000+0  17246-3 0  9991
2 42847  97.4067 144.0302 0007718 302.8764  57.1713 14.93317903286951
MIRATA                  
1 43015U 17073C   22293.23625169  .00006160  00000+0  43504-3 0  9994
2 43015  97.6569 183.9311 0234433 130.0503 232.1537 14.85658425265783
MAKERSAT 0              
1 43016U 17073D   22293.22449526  .00003664  00000+0  26838-3 0  9992
2 43016  97.6582 183.1739 0242814 135.5810 226.5165 14.83460393265673
CORVUS BC3              
1 43118U 18004H   22293.50451765  .00008522  00000+0  30300-3 0  9996
2 43118  97.3515   4.6558 0007331 280.7952  79.2463 15.29215252265316
MICROMAS-2A             
1 43131U 18004W   22293.26141803  .00034670  00000+0  78921-3 0  9997
2 43131  97.3659  13.2537 0005047 257.7482 102.3200 15.42873468265778
SPACEBEE-4              
1 43139U 18004AE  22293.49390983  .00135174  00000+0  15345-2 0  9996
2 43139  97.3740  20.7846 0005660 256.6287 103.4340 15.61885404266227
CICERO 7                
1 43143U 18004AJ  22293.47288002  .00021229  00000+0  57522-3 0  9996
2 43143  97.3649  12.2796 0004136 268.9008  91.1762 15.37669041265752
GOMX-4B                 
1 43196U 18015E   22293.32226277  .00007531  00000+0  27155-3 0  9995
2 43196  97.5503  74.1222 0016244 340.6610  19.4011 15.28708571262223
GOMX-4A                 
1 43197U 18015F   22293.54049336  .00011562  00000+0  39080-3 0  9998
2 43197  97.5502  75.4939 0015853 338.0914  86.1587 15.30690401262342
AEROCUBE 12A            
1 43556U 18046C   22293.56046435  .00027459  00000+0  58591-3 0  9990
2 43556  51.6345 291.9384 0007585 113.5732 246.6052 15.44645749238616
AEROCUBE 12B            
1 43557U 18046D   22293.37185569  .00019922  00000+0  47723-3 0  9993
2 43557  51.6359 299.5902 0007593 112.0799 248.0993 15.41388499238442
SURFSAT                 
1 43614U 18070B   22293.53730405  .00071319  00000+0  66006-3 0  9990
2 43614  93.0109 152.1320 0005312 216.7473 143.3433 15.67285480230560
CP7 (DAVE)              
1 43615U 18070C   22293.56365958  .00059289  00000+0  61524-3 0  9993
2 43615  93.0100 151.8332 0005848 226.3378 133.7405 15.64444589230517
CUBEBEL-1 (BSUSAT-1)    
1 43666U 18083E   22293.59049609  .00014202  00000+0  56151-3 0  9994
2 43666  97.4130 320.9708 0010587 247.9541 209.8936 15.25537937220540
CICERO 10               
1 43690U 18088A   22293.31569844  .00010764  00000+0  40561-3 0  9991
2 43690  85.0367 233.3395 0015551  54.2551 306.0137 15.26822261218792
IRVINE01                
1 43693U 18088D   22293.24772948  .00076168  00000+0  13636-2 0  9999
2 43693  85.0265 225.6515 0010099  42.4499 317.7537 15.49637105219455
PROXIMA I               
1 43694U 18088E   22293.33602119  .00011173  00000+0  39832-3 0  9994
2 43694  85.0305 229.7006 0017136  22.9475 337.2532 15.28623493219035
PROXIMA II              
1 43696U 18088G   22293.53473609  .00011825  00000+0  42201-3 0  9996
2 43696  85.0306 229.5918 0017162  22.2245 337.9741 15.28590827219050
FACSAT-1                
1 43721U 18096C   22293.51515343  .00032015  00000+0  75871-3 0  9997
2 43721  97.3416  13.5414 0011766 325.0561  91.8737 15.41620893217206
CENTAURI-2              
1 43722U 18096D   22293.49601691  .00042735  00000+0  83697-3 0  9992
2 43722  97.3473  16.3561 0010735 315.8670  44.1723 15.47212843217357
INNOSAT-2               
1 43738U 18096V   22293.49245331  .00181140  00000+0  15102-2 0  9993
2 43738  97.3554  26.1851 0010739 288.6034 200.1471 15.69456778217951
SIRION PATHFINDER-2     
1 43759U 18099B   22293.47252530  .00002609  00000+0  23254-3 0  9996
2 43759  97.6085 356.9153 0013295 194.6327 165.4512 14.96794504211747
CORVUS BC4              
1 43767U 18099K   22293.47672803  .00001689  00000+0  15468-3 0  9999
2 43767  97.6037 355.2434 0010677 200.7837 159.2952 14.96207584211660
MOVE-II                 
1 43780U 18099Y   22293.18074052  .00004766  00000+0  39988-3 0  9996
2 43780  97.6109 357.7088 0012709 207.2541 152.8016 14.98764788211733
SPACEBEE-7              
1 43816U 18099BL  22293.18172339  .00003864  00000+0  32759-3 0  9990
2 43816  97.6130 358.4339 0012919 191.5693 168.5235 14.98471740211325
SPACEBEE-5              
1 43817U 18099BM  22293.16944363  .00009721  00000+0  71681-3 0  9998
2 43817  97.6228   2.2105 0005704 177.6469 182.4784 15.03490562211491
SPACEBEE-6              
1 43818U 18099BN  22293.44063422  .00005487  00000+0  44641-3 0  9999
2 43818  97.6167 359.8475 0013072 195.8821 164.1994 14.99884169211568
